NORAD_CAT_ID,OBJECT_NAME,OBJECT_TYPE,EPOCH,MEAN_MOTION,ECCENTRICITY,INCLINATION,RA_OF_ASC_NODE,ARG_OF_PERICENTER,MEAN_ANOMALY,BSTAR,MEAN_MOTION_DOT,MEAN_MOTION_DDOT,TLE_LINE0,TLE_LINE1,TLE_LINE2,SEMIMAJOR_AXIS,PERIOD,APOGEE,PERIGEE,DECAYED
51722.0,STARLINK-3535,PAYLOAD,2022-10-13 15:39:42,15.08834744,0.0001693,53.2173,149.3242,48.9439,311.1699,5.7522e-05,6.27e-06,0.0,0 STARLINK-3535,1 51722U 22016J   22286.65257960  .00000627  00000-0  57522-4 0  9998,2 51722  53.2173 149.3242 0001693  48.9439 311.1699 15.08834744 35766,6917.896,95.438,540.933,538.59,0.0
51722.0,STARLINK-3535,PAYLOAD,2022-10-14 17:05:52,15.08838255,0.0001971,53.2122,144.5662,42.8052,317.3094,8.378799999999999e-05,1.046e-05,0.0,0 STARLINK-3535,1 51722U 22016J   22287.71241837  .00001046  00000-0  83788-4 0  9991,2 51722  53.2122 144.5662 0001971  42.8052 317.3094 15.08838255 35922,6917.886,95.438,541.114,538.387,0.0
51722.0,STARLINK-3535,PAYLOAD,2022-10-14 23:27:25,15.08834099,0.0001791,53.2149,143.3777,47.1947,312.9195,4.180600000000001e-05,3.77e-06,0.0,0 STARLINK-3535,1 51722U 22016J   22287.97738253  .00000377  00000-0  41806-4 0  9993,2 51722  53.2149 143.3777 0001791  47.1947 312.9195 15.08834099 35965,6917.898,95.438,541.002,538.524,0.0
51722.0,STARLINK-3535,PAYLOAD,2022-10-15 16:56:39,15.08844878,0.0001633,53.2168,140.1053,50.2413,309.8723,9.6423e-05,1.247e-05,0.0,0 STARLINK-3535,1 51722U 22016J   22288.70601279  .00001247  00000-0  96423-4 0  9994,2 51722  53.2168 140.1053 0001633  50.2413 309.8723 15.08844878 37135,6917.865,95.437,540.86,538.601,0.0
51722.0,STARLINK-3535,PAYLOAD,2022-10-16 07:15:08,15.08836286,0.0001412,53.2175,137.4318,47.7957,312.3155,1.8236e-05,2e-08,0.0,0 STARLINK-3535,1 51722U 22016J   22289.30218014  .00000002  00000-0  18236-4 0  9996,2 51722  53.2175 137.4318 0001412  47.7957 312.3155 15.08836286 36169,6917.892,95.438,540.734,538.78,0.0
51722.0,STARLINK-3535,PAYLOAD,2022-10-16 19:58:13,15.08834691,0.0001619,53.2179,135.0531,54.1258,305.9884,1.123e-05,-1.09e-06,0.0,0 STARLINK-3535,1 51722U 22016J   22289.83210386 -.00000109  00000-0  11230-4 0  9994,2 51722  53.2179 135.0531 0001619  54.1258 305.9884 15.08834691 36243,6917.897,95.438,540.882,538.6419999999998,0.0
51722.0,STARLINK-3535,PAYLOAD,2022-10-17 13:27:27,15.08847944,0.0001831999999999,53.2167,131.7818,52.1427,307.9731,4.7729e-05,4.72e-06,0.0,0 STARLINK-3535,1 51722U 22016J   22290.56073428  .00000472  00000-0  47729-4 0  9994,2 51722  53.2167 131.7818 0001832  52.1427 307.9731 15.08847944 36354,6917.856,95.437,540.988,538.4540000000002,0.0
51722.0,STARLINK-3535,PAYLOAD,2022-10-17 19:49:02,15.08736973,0.0002413,53.2173,130.5927,60.374,299.7493,0.0014727,0.00023162,0.0,0 STARLINK-3535,1 51722U 22016J   22290.82572114  .00023162  00000-0  14727-2 0  9990,2 51722  53.2173 130.5927 0002413  60.3740 299.7493 15.08736973 36390,6918.195,95.444,541.73,538.391,0.0
51722.0,STARLINK-3535,PAYLOAD,2022-10-18 11:42:52,15.08833895,0.0001712,53.2169,127.6183,50.3523,309.762,0.00010546,1.39e-05,0.0,0 STARLINK-3535,1 51722U 22016J   22291.48810251  .00001390  00000-0  10546-3 0  9995,2 51722  53.2169 127.6183 0001712  50.3523 309.7620 15.08833895 37559,6917.899,95.438,540.948,538.58,0.0
51722.0,STARLINK-3535,PAYLOAD,2022-10-18 19:39:47,15.08838871,0.0001696,53.2169,126.1313,51.5054,308.6090000000001,0.0001416,1.966e-05,0.0,0 STARLINK-3535,1 51722U 22016J   22291.81929973  .00001966  00000-0  14160-3 0  9999,2 51722  53.2169 126.1313 0001696  51.5054 308.6090 15.08838871 36547,6917.884,95.438,540.922,538.576,0.0
51722.0,STARLINK-3535,PAYLOAD,2022-10-18 22:50:33,15.08843348,0.0001706999999999,53.217,125.5366,50.8154,309.2990000000001,0.00012246,1.662e-05,0.0,0 STARLINK-3535,1 51722U 22016J   22291.95177726  .00001662  00000-0  12246-3 0  9991,2 51722  53.2170 125.5366 0001707  50.8154 309.2990 15.08843348 37627,6917.87,95.437,540.9159999999998,538.554,0.0
51722.0,STARLINK-3535,PAYLOAD,2022-10-19 13:09:01,15.08849275,0.0001704,53.2168,122.8602,50.5756,309.5387,-3.8262e-05,-8.97e-06,0.0,0 STARLINK-3535,1 51722U 22016J   22292.54793764 -.00000897  00000-0 -38262-4 0  9991,2 51722  53.2168 122.8602 0001704  50.5756 309.5387 15.08849275 36659,6917.852,95.437,540.896,538.538,0.0
51722.0,STARLINK-3535,PAYLOAD,2022-10-19 19:30:34,15.08843337,0.0001798,53.2169,121.6714,48.02,312.0945,-0.00011096,-2.054e-05,0.0,0 STARLINK-3535,1 51722U 22016J   22292.81290236 -.00002054  00000-0 -11096-3 0  9999,2 51722  53.2169 121.6714 0001798  48.0200 312.0945 15.08843337 37754,6917.87,95.437,540.979,538.491,0.0
51722.0,STARLINK-3535,PAYLOAD,2022-10-20 12:59:49,15.08839584,0.0001733,53.2167,118.3994,51.952,308.1629,6.7081e-05,7.8e-06,0.0,0 STARLINK-3535,1 51722U 22016J   22293.54154109  .00000780  00000-0  67081-4 0  9996,2 51722  53.2167 118.3994 0001733  51.9520 308.1629 15.08839584 36801,6917.882,95.438,540.946,538.548,0.0
51722.0,STARLINK-3535,PAYLOAD,2022-10-20 19:21:21,15.08842836,0.0001747,53.2169,117.2103,50.9764,309.1384,9.0728e-05,1.156e-05,0.0,0 STARLINK-3535,1 51722U 22016J   22293.80649830  .00001156  00000-0  90728-4 0  9997,2 51722  53.2169 117.2103 0001747  50.9764 309.1384 15.08842836 36844,6917.871999999999,95.437,540.945,538.528,0.0
51722.0,STARLINK-3535,PAYLOAD,2022-10-21 04:53:40,15.08838495,0.0001744,53.2169,115.4266,49.0336,311.0807,-1.9104e-05,-5.92e-06,0.0,0 STARLINK-3535,1 51722U 22016J   22294.20394370 -.00000592  00000-0 -19104-4 0  9992,2 51722  53.2169 115.4266 0001744  49.0336 311.0807 15.08838495 37967,6917.885,95.438,540.956,538.544,0.0
51722.0,STARLINK-3535,PAYLOAD,2022-10-21 11:15:13,15.08835148,0.0001695,53.2169,114.2371,48.3589,311.7548,-7.1804e-06,-4.02e-06,0.0,0 STARLINK-3535,1 51722U 22016J   22294.46890572 -.00000402  00000-0 -71804-5 0  9991,2 51722  53.2169 114.2371 0001695  48.3589 311.7548 15.08835148 36946,6917.895,95.438,540.933,538.5880000000002,0.0
51722.0,STARLINK-3535,PAYLOAD,2022-10-21 19:12:09,15.08832196,0.0001746,53.2169,112.7504,49.5655,310.5489,4.7909e-05,4.74e-06,0.0,0 STARLINK-3535,1 51722U 22016J   22294.80010727  .00000474  00000-0  47909-4 0  9990,2 51722  53.2169 112.7504 0001746  49.5655 310.5489 15.08832196 36997,6917.904,95.438,540.977,538.561,0.0
51722.0,STARLINK-3535,PAYLOAD,2022-10-22 11:06:00,15.0884226,0.0001756,53.2166,109.776,48.3776,311.7367,4.6459e-05,4.51e-06,0.0,0 STARLINK-3535,1 51722U 22016J   22295.46250324  .00000451  00000-0  46459-4 0  9996,2 51722  53.2166 109.7760 0001756  48.3776 311.7367 15.08842260 38157,6917.873000000001,95.437,540.953,538.524,0.0
51722.0,STARLINK-3535,PAYLOAD,2022-10-22 20:38:19,15.08836404,0.000187,53.2172,107.9922,46.9156,313.1992,-7.7608e-07,-3e-06,0.0,0 STARLINK-3535,1 51722U 22016J   22295.85994841 -.00000300  00000-0 -77608-6 0  9995,2 51722  53.2172 107.9922 0001870  46.9156 313.1992 15.08836404 37159,6917.891,95.438,541.05,538.4630000000002,0.0
51722.0,STARLINK-3535,PAYLOAD,2022-10-23 12:32:11,15.08832881,0.0001855999999999,53.2168,105.018,50.4836,309.632,5.1452e-05,5.31e-06,0.0,0 STARLINK-3535,1 51722U 22016J   22296.52235190  .00000531  00000-0  51452-4 0  9996,2 51722  53.2168 105.0180 0001856  50.4836 309.6320 15.08832881 37259,6917.901999999999,95.438,541.0509999999998,538.4830000000002,0.0
51722.0,STARLINK-3535,PAYLOAD,2022-10-23 20:29:06,15.08837501,0.0001813,53.2171,103.531,50.5244,309.5909,8.2157e-05,1.02e-05,0.0,0 STARLINK-3535,1 51722U 22016J   22296.85354954  .00001020  00000-0  82157-4 0  9992,2 51722  53.2171 103.5310 0001813  50.5244 309.5909 15.08837501 37300,6917.888000000001,95.438,541.007,538.499,0.0
51722.0,STARLINK-3535,PAYLOAD,2022-10-24 04:26:02,15.08843437,0.0002024,53.2176,102.0446,49.5096,310.6072,8.4563e-05,1.058e-05,0.0,0 STARLINK-3535,1 51722U 22016J   22297.18474672  .00001058  00000-0  84563-4 0  9993,2 51722  53.2176 102.0446 0002024  49.5096 310.6072 15.08843437 38419,6917.87,95.437,541.135,538.335,0.0
51722.0,STARLINK-3535,PAYLOAD,2022-10-24 10:47:34,15.0884413,0.0001824,53.2176,100.855,51.4341,308.6815,8.3104e-05,1.035e-05,0.0,0 STARLINK-3535,1 51722U 22016J   22297.44970580  .00001035  00000-0  83104-4 0  9996,2 51722  53.2176 100.8550 0001824  51.4341 308.6815 15.08844130 37392,6917.868,95.437,540.995,538.471,0.0
51722.0,STARLINK-3535,PAYLOAD,2022-10-24 17:09:07,15.08838101,0.0001696,53.2181,99.6649,57.7746,302.3411,3.1545e-06,-2.38e-06,0.0,0 STARLINK-3535,1 51722U 22016J   22297.71467175 -.00000238  00000-0  31545-5 0  9995,2 51722  53.2181  99.6649 0001696  57.7746 302.3411 15.08838101 37436,6917.886,95.438,540.924,538.578,0.0
51722.0,STARLINK-3535,PAYLOAD,2022-10-25 10:38:22,15.08827557,0.0001826,53.2179,96.3943,51.9325,308.1831,0.00015215,2.133e-05,0.0,0 STARLINK-3535,1 51722U 22016J   22298.44331679  .00002133  00000-0  15215-3 0  9994,2 51722  53.2179  96.3943 0001826  51.9325 308.1831 15.08827557 37543,6917.918000000002,95.438,541.047,538.52,0.0
51722.0,STARLINK-3535,PAYLOAD,2022-10-25 16:59:54,15.08838905,0.0001896999999999,53.2179,95.2053,51.643,308.4733,7.8812e-05,9.66e-06,0.0,0 STARLINK-3535,1 51722U 22016J   22298.70827254  .00000966  00000-0  78812-4 0  9997,2 51722  53.2179  95.2053 0001897  51.6430 308.4733 15.08838905 37582,6917.884,95.438,541.061,538.436,0.0
51722.0,STARLINK-3535,PAYLOAD,2022-10-26 04:07:36,15.08845607,0.0001938,53.2178,93.1238,50.8373,309.2791,7.8438e-05,9.61e-06,0.0,0 STARLINK-3535,1 51722U 22016J   22299.17194800  .00000961  00000-0  78438-4 0  9992,2 51722  53.2178  93.1238 0001938  50.8373 309.2791 15.08845607 38712,6917.863,95.437,541.069,538.388,0.0
51722.0,STARLINK-3535,PAYLOAD,2022-10-26 08:53:45,15.08847809,0.0001824,53.2177,92.2316,49.9013,310.2139,9.1893e-05,1.175e-05,0.0,0 STARLINK-3535,1 51722U 22016J   22299.37066535  .00001175  00000-0  91893-4 0  9995,2 51722  53.2177  92.2316 0001824  49.9013 310.2139 15.08847809 37681,6917.857,95.437,540.9830000000002,538.46,0.0
